ORBCOMM-X [-]           
1 21576U 91050C   24032.63299172  .00000434  00000+0  14447-3 0  9999
2 21576  98.4077 101.9761 0002543 256.0216 104.0691 14.42348363710017
ORBCOMM FM01 [-]        
1 23545U 95017A   24032.35669593  .00005671  00000+0  79035-3 0  9993
2 23545  69.9667 233.3779 0005737 329.8133  30.2684 14.78232313538068
ORBCOMM FM02 [-]        
1 23546U 95017B   24032.83178304  .00004937  00000+0  69483-3 0  9992
2 23546  69.9685 251.4616 0007792 330.1466  29.9237 14.77896860538080
ORBCOMM FM08 [-]        
1 25112U 97084A   24031.99299298  .00001551  00000+0  51226-3 0  9996
2 25112  45.0141 251.0511 0006941 232.8640 127.1576 14.41921378368790
ORBCOMM FM10 [-]        
1 25113U 97084B   24031.71734446  .00001503  00000+0  49856-3 0  9999
2 25113  45.0153 254.1500 0004768 199.0694 160.9978 14.41847708543907
ORBCOMM FM11 [+]        
1 25114U 97084C   24032.69809174  .00001549  00000+0  51358-3 0  9999
2 25114  45.0129 249.4642 0005609 204.7497 155.3084 14.41737503369043
ORBCOMM FM12 [-]        
1 25115U 97084D   24032.58646853  .00001477  00000+0  49215-3 0  9990
2 25115  45.0145 249.6625 0004606 204.3728 155.6905 14.41715563369030
ORBCOMM FM09 [-]        
1 25116U 97084E   24032.59548538  .00001490  00000+0  49626-3 0  9994
2 25116  45.0148 250.2782 0005772 189.4575 170.6167 14.41683142369005
