<?xml version="1.0" encoding="UTF-8"?>
<ndm xmlns:xsi="http://www.w3.org/2001/XMLSchema-instance" xsi:noNamespaceSchemaLocation="https://sanaregistry.org/r/ndmxml_unqualified/ndmxml-2.0.0-master-2.0.xsd">
<omm id="CCSDS_OMM_VERS" version="2.0">
<header><CREATION_DATE/><ORIGINATOR/></header><body><segment><metadata><OBJECT_NAME>ORBCOMM-X [-]</OBJECT_NAME><OBJECT_ID>1991-050C</OBJECT_ID><CENTER_NAME>EARTH</CENTER_NAME><REF_FRAME>TEME</REF_FRAME><TIME_SYSTEM>UTC</TIME_SYSTEM><MEAN_ELEMENT_THEORY>SGP4</MEAN_ELEMENT_THEORY></metadata><data><meanElements><EPOCH>2024-02-01T15:11:30.484608</EPOCH><MEAN_MOTION>14.42348363</MEAN_MOTION><ECCENTRICITY>.0002543</ECCENTRICITY><INCLINATION>98.4077</INCLINATION><RA_OF_ASC_NODE>101.9761</RA_OF_ASC_NODE><ARG_OF_PERICENTER>256.0216</ARG_OF_PERICENTER><MEAN_ANOMALY>104.0691</MEAN_ANOMALY></meanElements><tleParameters><EPHEMERIS_TYPE>0</EPHEMERIS_TYPE><CLASSIFICATION_TYPE>U</CLASSIFICATION_TYPE><NORAD_CAT_ID>21576</NORAD_CAT_ID><ELEMENT_SET_NO>999</ELEMENT_SET_NO><REV_AT_EPOCH>71001</REV_AT_EPOCH><BSTAR>.14447E-3</BSTAR><MEAN_MOTION_DOT>.434E-5</MEAN_MOTION_DOT><MEAN_MOTION_DDOT>0</MEAN_MOTION_DDOT></tleParameters></data></segment></body></omm>
<omm id="CCSDS_OMM_VERS" version="2.0">
<header><CREATION_DATE/><ORIGINATOR/></header><body><segment><metadata><OBJECT_NAME>ORBCOMM FM01 [-]</OBJECT_NAME><OBJECT_ID>1995-017A</OBJECT_ID><CENTER_NAME>EARTH</CENTER_NAME><REF_FRAME>TEME</REF_FRAME><TIME_SYSTEM>UTC</TIME_SYSTEM><MEAN_ELEMENT_THEORY>SGP4</MEAN_ELEMENT_THEORY></metadata><data><meanElements><EPOCH>2024-02-01T08:33:38.528352</EPOCH><MEAN_MOTION>14.78232313</MEAN_MOTION><ECCENTRICITY>.0005737</ECCENTRICITY><INCLINATION>69.9667</INCLINATION><RA_OF_ASC_NODE>233.3779</RA_OF_ASC_NODE><ARG_OF_PERICENTER>329.8133</ARG_OF_PERICENTER><MEAN_ANOMALY>30.2684</MEAN_ANOMALY></meanElements><tleParameters><EPHEMERIS_TYPE>0</EPHEMERIS_TYPE><CLASSIFICATION_TYPE>U</CLASSIFICATION_TYPE><NORAD_CAT_ID>23545</NORAD_CAT_ID><ELEMENT_SET_NO>999</ELEMENT_SET_NO><REV_AT_EPOCH>53806</REV_AT_EPOCH><BSTAR>.79035E-3</BSTAR><MEAN_MOTION_DOT>.5671E-4</MEAN_MOTION_DOT><MEAN_MOTION_DDOT>0</MEAN_MOTION_DDOT></tleParameters></data></segment></body></omm>
<omm id="CCSDS_OMM_VERS" version="2.0">
<header><CREATION_DATE/><ORIGINATOR/></header><body><segment><metadata><OBJECT_NAME>ORBCOMM FM02 [-]</OBJECT_NAME><OBJECT_ID>1995-017B</OBJECT_ID><CENTER_NAME>EARTH</CENTER_NAME><REF_FRAME>TEME</REF_FRAME><TIME_SYSTEM>UTC</TIME_SYSTEM><MEAN_ELEMENT_THEORY>SGP4</MEAN_ELEMENT_THEORY></metadata><data><meanElements><EPOCH>2024-02-01T19:57:46.054656</EPOCH><MEAN_MOTION>14.77896860</MEAN_MOTION><ECCENTRICITY>.0007792</ECCENTRICITY><INCLINATION>69.9685</INCLINATION><RA_OF_ASC_NODE>251.4616</RA_OF_ASC_NODE><ARG_OF_PERICENTER>330.1466</ARG_OF_PERICENTER><MEAN_ANOMALY>29.9237</MEAN_ANOMALY></meanElements><tleParameters><EPHEMERIS_TYPE>0</EPHEMERIS_TYPE><CLASSIFICATION_TYPE>U</CLASSIFICATION_TYPE><NORAD_CAT_ID>23546</NORAD_CAT_ID><ELEMENT_SET_NO>999</ELEMENT_SET_NO><REV_AT_EPOCH>53808</REV_AT_EPOCH><BSTAR>.69483E-3</BSTAR><MEAN_MOTION_DOT>.4937E-4</MEAN_MOTION_DOT><MEAN_MOTION_DDOT>0</MEAN_MOTION_DDOT></tleParameters></data></segment></body></omm>
<omm id="CCSDS_OMM_VERS" version="2.0">
<header><CREATION_DATE/><ORIGINATOR/></header><body><segment><metadata><OBJECT_NAME>ORBCOMM FM08 [-]</OBJECT_NAME><OBJECT_ID>1997-084A</OBJECT_ID><CENTER_NAME>EARTH</CENTER_NAME><REF_FRAME>TEME</REF_FRAME><TIME_SYSTEM>UTC</TIME_SYSTEM><MEAN_ELEMENT_THEORY>SGP4</MEAN_ELEMENT_THEORY></metadata><data><meanElements><EPOCH>2024-01-31T23:49:54.593472</EPOCH><MEAN_MOTION>14.41921378</MEAN_MOTION><ECCENTRICITY>.0006941</ECCENTRICITY><INCLINATION>45.0141</INCLINATION><RA_OF_ASC_NODE>251.0511</RA_OF_ASC_NODE><ARG_OF_PERICENTER>232.8640</ARG_OF_PERICENTER><MEAN_ANOMALY>127.1576</MEAN_ANOMALY></meanElements><tleParameters><EPHEMERIS_TYPE>0</EPHEMERIS_TYPE><CLASSIFICATION_TYPE>U</CLASSIFICATION_TYPE><NORAD_CAT_ID>25112</NORAD_CAT_ID><ELEMENT_SET_NO>999</ELEMENT_SET_NO><REV_AT_EPOCH>36879</REV_AT_EPOCH><BSTAR>.51226E-3</BSTAR><MEAN_MOTION_DOT>.1551E-4</MEAN_MOTION_DOT><MEAN_MOTION_DDOT>0</MEAN_MOTION_DDOT></tleParameters></data></segment></body></omm>
<omm id="CCSDS_OMM_VERS" version="2.0">
<header><CREATION_DATE/><ORIGINATOR/></header><body><segment><metadata><OBJECT_NAME>ORBCOMM FM10 [-]</OBJECT_NAME><OBJECT_ID>1997-084B</OBJECT_ID><CENTER_NAME>EARTH</CENTER_NAME><REF_FRAME>TEME</REF_FRAME><TIME_SYSTEM>UTC</TIME_SYSTEM><MEAN_ELEMENT_THEORY>SGP4</MEAN_ELEMENT_THEORY></metadata><data><meanElements><EPOCH>2024-01-31T17:12:58.561344</EPOCH><MEAN_MOTION>14.41847708</MEAN_MOTION><ECCENTRICITY>.0004768</ECCENTRICITY><INCLINATION>45.0153</INCLINATION><RA_OF_ASC_NODE>254.1500</RA_OF_ASC_NODE><ARG_OF_PERICENTER>199.0694</ARG_OF_PERICENTER><MEAN_ANOMALY>160.9978</MEAN_ANOMALY></meanElements><tleParameters><EPHEMERIS_TYPE>0</EPHEMERIS_TYPE><CLASSIFICATION_TYPE>U</CLASSIFICATION_TYPE><NORAD_CAT_ID>25113</NORAD_CAT_ID><ELEMENT_SET_NO>999</ELEMENT_SET_NO><REV_AT_EPOCH>54390</REV_AT_EPOCH><BSTAR>.49856E-3</BSTAR><MEAN_MOTION_DOT>.1503E-4</MEAN_MOTION_DOT><MEAN_MOTION_DDOT>0</MEAN_MOTION_DDOT></tleParameters></data></segment></body></omm>
<omm id="CCSDS_OMM_VERS" version="2.0">
<header><CREATION_DATE/><ORIGINATOR/></header><body><segment><metadata><OBJECT_NAME>ORBCOMM FM11 [+]</OBJECT_NAME><OBJECT_ID>1997-084C</OBJECT_ID><CENTER_NAME>EARTH</CENTER_NAME><REF_FRAME>TEME</REF_FRAME><TIME_SYSTEM>UTC</TIME_SYSTEM><MEAN_ELEMENT_THEORY>SGP4</MEAN_ELEMENT_THEORY></metadata><data><meanElements><EPOCH>2024-02-01T16:45:15.126336</EPOCH><MEAN_MOTION>14.41737503</MEAN_MOTION><ECCENTRICITY>.0005609</ECCENTRICITY><INCLINATION>45.0129</INCLINATION><RA_OF_ASC_NODE>249.4642</RA_OF_ASC_NODE><ARG_OF_PERICENTER>204.7497</ARG_OF_PERICENTER><MEAN_ANOMALY>155.3084</MEAN_ANOMALY></meanElements><tleParameters><EPHEMERIS_TYPE>0</EPHEMERIS_TYPE><CLASSIFICATION_TYPE>U</CLASSIFICATION_TYPE><NORAD_CAT_ID>25114</NORAD_CAT_ID><ELEMENT_SET_NO>999</ELEMENT_SET_NO><REV_AT_EPOCH>36904</REV_AT_EPOCH><BSTAR>.51358E-3</BSTAR><MEAN_MOTION_DOT>.1549E-4</MEAN_MOTION_DOT><MEAN_MOTION_DDOT>0</MEAN_MOTION_DDOT></tleParameters></data></segment></body></omm>
<omm id="CCSDS_OMM_VERS" version="2.0">
<header><CREATION_DATE/><ORIGINATOR/></header><body><segment><metadata><OBJECT_NAME>ORBCOMM FM12 [-]</OBJECT_NAME><OBJECT_ID>1997-084D</OBJECT_ID><CENTER_NAME>EARTH</CENTER_NAME><REF_FRAME>TEME</REF_FRAME><TIME_SYSTEM>UTC</TIME_SYSTEM><MEAN_ELEMENT_THEORY>SGP4</MEAN_ELEMENT_THEORY></metadata><data><meanElements><EPOCH>2024-02-01T14:04:30.880992</EPOCH><MEAN_MOTION>14.41715563</MEAN_MOTION><ECCENTRICITY>.0004606</ECCENTRICITY><INCLINATION>45.0145</INCLINATION><RA_OF_ASC_NODE>249.6625</RA_OF_ASC_NODE><ARG_OF_PERICENTER>204.3728</ARG_OF_PERICENTER><MEAN_ANOMALY>155.6905</MEAN_ANOMALY></meanElements><tleParameters><EPHEMERIS_TYPE>0</EPHEMERIS_TYPE><CLASSIFICATION_TYPE>U</CLASSIFICATION_TYPE><NORAD_CAT_ID>25115</NORAD_CAT_ID><ELEMENT_SET_NO>999</ELEMENT_SET_NO><REV_AT_EPOCH>36903</REV_AT_EPOCH><BSTAR>.49215E-3</BSTAR><MEAN_MOTION_DOT>.1477E-4</MEAN_MOTION_DOT><MEAN_MOTION_DDOT>0</MEAN_MOTION_DDOT></tleParameters></data></segment></body></omm>
<omm id="CCSDS_OMM_VERS" version="2.0">
<header><CREATION_DATE/><ORIGINATOR/></header><body><segment><metadata><OBJECT_NAME>ORBCOMM FM09 [-]</OBJECT_NAME><OBJECT_ID>1997-084E</OBJECT_ID><CENTER_NAME>EARTH</CENTER_NAME><REF_FRAME>TEME</REF_FRAME><TIME_SYSTEM>UTC</TIME_SYSTEM><MEAN_ELEMENT_THEORY>SGP4</MEAN_ELEMENT_THEORY></metadata><data><meanElements><EPOCH>2024-02-01T14:17:29.936832</EPOCH><MEAN_MOTION>14.41683142</MEAN_MOTION><ECCENTRICITY>.0005772</ECCENTRICITY><INCLINATION>45.0148</INCLINATION><RA_OF_ASC_NODE>250.2782</RA_OF_ASC_NODE><ARG_OF_PERICENTER>189.4575</ARG_OF_PERICENTER><MEAN_ANOMALY>170.6167</MEAN_ANOMALY></meanElements><tleParameters><EPHEMERIS_TYPE>0</EPHEMERIS_TYPE><CLASSIFICATION_TYPE>U</CLASSIFICATION_TYPE><NORAD_CAT_ID>25116</NORAD_CAT_ID><ELEMENT_SET_NO>999</ELEMENT_SET_NO><REV_AT_EPOCH>36900</REV_AT_EPOCH><BSTAR>.49626E-3</BSTAR><MEAN_MOTION_DOT>.149E-4</MEAN_MOTION_DOT><MEAN_MOTION_DDOT>0</MEAN_MOTION_DDOT></tleParameters></data></segment></body></omm>

</ndm>
